[{"OBJECT_NAME":"LEMUR-1","OBJECT_ID":"2014-033AL","EPOCH":"2026-03-03T08:54:34.621920","MEAN_MOTION":14.84758102,"ECCENTRICITY":0.0049822,"INCLINATION":97.77,"RA_OF_ASC_NODE":214.6528,"ARG_OF_PERICENTER":66.1847,"MEAN_ANOMALY":294.458,"EPHEMERIS_TYPE":0,"CLASSIFICATION_TYPE":"U","NORAD_CAT_ID":40044,"ELEMENT_SET_NO":999,"REV_AT_EPOCH":62976,"BSTAR":0.00040662,"MEAN_MOTION_DOT":3.471e-5,"MEAN_MOTION_DDOT":0},{"OBJECT_NAME":"LEMUR-2-GREENBERG","OBJECT_ID":"2017-042N","EPOCH":"2026-03-03T12:02:54.215232","MEAN_MOTION":15.27683252,"ECCENTRICITY":0.0009521,"INCLINATION":97.3762,"RA_OF_ASC_NODE":243.9025,"ARG_OF_PERICENTER":24.9743,"MEAN_ANOMALY":335.1955,"EPHEMERIS_TYPE":0,"CLASSIFICATION_TYPE":"U","NORAD_CAT_ID":42837,"ELEMENT_SET_NO":999,"REV_AT_EPOCH":47223,"BSTAR":0.00078816,"MEAN_MOTION_DOT":0.00021315,"MEAN_MOTION_DDOT":0},{"OBJECT_NAME":"LEMUR-2-ANDIS","OBJECT_ID":"2017-042P","EPOCH":"2026-03-03T11:29:09.011328","MEAN_MOTION":15.30196763,"ECCENTRICITY":0.0009466,"INCLINATION":97.3647,"RA_OF_ASC_NODE":243.7634,"ARG_OF_PERICENTER":25.2985,"MEAN_ANOMALY":334.8717,"EPHEMERIS_TYPE":0,"CLASSIFICATION_TYPE":"U","NORAD_CAT_ID":42838,"ELEMENT_SET_NO":999,"REV_AT_EPOCH":47226,"BSTAR":0.00091007,"MEAN_MOTION_DOT":0.00026612,"MEAN_MOTION_DDOT":0},{"OBJECT_NAME":"LEMUR-2-MONSON","OBJECT_ID":"2017-042Q","EPOCH":"2026-03-03T11:46:08.393952","MEAN_MOTION":15.247321,"ECCENTRICITY":0.0006936,"INCLINATION":97.4019,"RA_OF_ASC_NODE":243.9999,"ARG_OF_PERICENTER":14.4977,"MEAN_ANOMALY":345.6458,"EPHEMERIS_TYPE":0,"CLASSIFICATION_TYPE":"U","NORAD_CAT_ID":42839,"ELEMENT_SET_NO":999,"REV_AT_EPOCH":47204,"BSTAR":0.00075957,"MEAN_MOTION_DOT":0.00018773,"MEAN_MOTION_DDOT":0},{"OBJECT_NAME":"LEMUR-2-FURIAUS","OBJECT_ID":"2017-042R","EPOCH":"2026-03-03T11:16:50.051136","MEAN_MOTION":15.25865437,"ECCENTRICITY":0.0007619,"INCLINATION":97.3735,"RA_OF_ASC_NODE":242.0946,"ARG_OF_PERICENTER":78.7628,"MEAN_ANOMALY":281.4467,"EPHEMERIS_TYPE":0,"CLASSIFICATION_TYPE":"U","NORAD_CAT_ID":42840,"ELEMENT_SET_NO":999,"REV_AT_EPOCH":47206,"BSTAR":0.0010856,"MEAN_MOTION_DOT":0.00027827,"MEAN_MOTION_DDOT":0},{"OBJECT_NAME":"LEMUR-2-PETERG","OBJECT_ID":"2017-042S","EPOCH":"2026-03-03T11:07:04.816416","MEAN_MOTION":15.29292108,"ECCENTRICITY":0.000399,"INCLINATION":97.3963,"RA_OF_ASC_NODE":247.6714,"ARG_OF_PERICENTER":3.0308,"MEAN_ANOMALY":357.0955,"EPHEMERIS_TYPE":0,"CLASSIFICATION_TYPE":"U","NORAD_CAT_ID":42841,"ELEMENT_SET_NO":999,"REV_AT_EPOCH":47225,"BSTAR":0.0008589,"MEAN_MOTION_DOT":0.00024388,"MEAN_MOTION_DDOT":0},{"OBJECT_NAME":"LEMUR-2-DEMBITZ","OBJECT_ID":"2017-042T","EPOCH":"2026-03-03T10:41:20.012928","MEAN_MOTION":15.26651527,"ECCENTRICITY":0.0007267,"INCLINATION":97.3793,"RA_OF_ASC_NODE":244.9641,"ARG_OF_PERICENTER":37.6449,"MEAN_ANOMALY":322.5297,"EPHEMERIS_TYPE":0,"CLASSIFICATION_TYPE":"U","NORAD_CAT_ID":42842,"ELEMENT_SET_NO":999,"REV_AT_EPOCH":47219,"BSTAR":0.00086975,"MEAN_MOTION_DOT":0.00022797,"MEAN_MOTION_DDOT":0},{"OBJECT_NAME":"LEMUR-2-ZACHARY","OBJECT_ID":"2017-042W","EPOCH":"2026-03-03T11:40:24.413088","MEAN_MOTION":15.41385643,"ECCENTRICITY":0.0003723,"INCLINATION":97.3649,"RA_OF_ASC_NODE":252.5231,"ARG_OF_PERICENTER":40.01,"MEAN_ANOMALY":320.142,"EPHEMERIS_TYPE":0,"CLASSIFICATION_TYPE":"U","NORAD_CAT_ID":42845,"ELEMENT_SET_NO":999,"REV_AT_EPOCH":47287,"BSTAR":0.0011943,"MEAN_MOTION_DOT":0.00050061,"MEAN_MOTION_DDOT":0},{"OBJECT_NAME":"LEMUR-2-JIN-LUEN","OBJECT_ID":"2018-014C","EPOCH":"2026-03-03T07:40:31.571040","MEAN_MOTION":15.75884772,"ECCENTRICITY":0.0001757,"INCLINATION":97.5452,"RA_OF_ASC_NODE":352.0185,"ARG_OF_PERICENTER":104.7382,"MEAN_ANOMALY":255.4078,"EPHEMERIS_TYPE":0,"CLASSIFICATION_TYPE":"U","NORAD_CAT_ID":43182,"ELEMENT_SET_NO":999,"REV_AT_EPOCH":44446,"BSTAR":0.001413,"MEAN_MOTION_DOT":0.00222854,"MEAN_MOTION_DDOT":0},{"OBJECT_NAME":"LEMUR-2-KADI","OBJECT_ID":"2018-014E","EPOCH":"2026-03-03T07:58:47.768448","MEAN_MOTION":15.62713187,"ECCENTRICITY":0.0001126,"INCLINATION":97.4722,"RA_OF_ASC_NODE":346.6398,"ARG_OF_PERICENTER":44.1741,"MEAN_ANOMALY":315.9606,"EPHEMERIS_TYPE":0,"CLASSIFICATION_TYPE":"U","NORAD_CAT_ID":43184,"ELEMENT_SET_NO":999,"REV_AT_EPOCH":44439,"BSTAR":0.0011396,"MEAN_MOTION_DOT":0.00103161,"MEAN_MOTION_DDOT":0},{"OBJECT_NAME":"LEMUR-2-AMANDA-SVANTE","OBJECT_ID":"2021-034B","EPOCH":"2026-03-03T03:54:58.358016","MEAN_MOTION":15.27987593,"ECCENTRICITY":0.0002101,"INCLINATION":97.5848,"RA_OF_ASC_NODE":138.1304,"ARG_OF_PERICENTER":227.7624,"MEAN_ANOMALY":132.3437,"EPHEMERIS_TYPE":0,"CLASSIFICATION_TYPE":"U","NORAD_CAT_ID":48269,"ELEMENT_SET_NO":999,"REV_AT_EPOCH":26483,"BSTAR":0.0011595,"MEAN_MOTION_DOT":0.00031688,"MEAN_MOTION_DDOT":0},{"OBJECT_NAME":"LEMUR-2-SPECIAL-K","OBJECT_ID":"2021-034F","EPOCH":"2026-03-03T04:10:43.593888","MEAN_MOTION":15.44239697,"ECCENTRICITY":0.0001444,"INCLINATION":97.5731,"RA_OF_ASC_NODE":143.2096,"ARG_OF_PERICENTER":221.9143,"MEAN_ANOMALY":138.1994,"EPHEMERIS_TYPE":0,"CLASSIFICATION_TYPE":"U","NORAD_CAT_ID":48273,"ELEMENT_SET_NO":999,"REV_AT_EPOCH":26523,"BSTAR":0.0015327,"MEAN_MOTION_DOT":0.00070883,"MEAN_MOTION_DDOT":0},{"OBJECT_NAME":"LEMUR-2-EMBRIONOVIS","OBJECT_ID":"2023-084AQ","EPOCH":"2026-03-03T08:18:20.035872","MEAN_MOTION":15.34507372,"ECCENTRICITY":0.0008631,"INCLINATION":97.6117,"RA_OF_ASC_NODE":202.8245,"ARG_OF_PERICENTER":337.3194,"MEAN_ANOMALY":22.7666,"EPHEMERIS_TYPE":0,"CLASSIFICATION_TYPE":"U","NORAD_CAT_ID":56970,"ELEMENT_SET_NO":999,"REV_AT_EPOCH":15143,"BSTAR":0.0002939,"MEAN_MOTION_DOT":9.753e-5,"MEAN_MOTION_DDOT":0},{"OBJECT_NAME":"LEMUR-2-MANO","OBJECT_ID":"2023-100E","EPOCH":"2026-03-03T11:28:34.980960","MEAN_MOTION":15.58836875,"ECCENTRICITY":0.0002456,"INCLINATION":99.4553,"RA_OF_ASC_NODE":82.9619,"ARG_OF_PERICENTER":57.6532,"MEAN_ANOMALY":302.4955,"EPHEMERIS_TYPE":0,"CLASSIFICATION_TYPE":"U","NORAD_CAT_ID":57390,"ELEMENT_SET_NO":999,"REV_AT_EPOCH":14551,"BSTAR":0.00182,"MEAN_MOTION_DOT":0.00142924,"MEAN_MOTION_DDOT":0},{"OBJECT_NAME":"LEMUR-2-DEVERILL-M-T","OBJECT_ID":"2023-100F","EPOCH":"2026-03-02T23:58:57.723744","MEAN_MOTION":15.34281705,"ECCENTRICITY":0.0008785,"INCLINATION":99.4573,"RA_OF_ASC_NODE":70.5637,"ARG_OF_PERICENTER":48.1198,"MEAN_ANOMALY":312.0787,"EPHEMERIS_TYPE":0,"CLASSIFICATION_TYPE":"U","NORAD_CAT_ID":57391,"ELEMENT_SET_NO":999,"REV_AT_EPOCH":14493,"BSTAR":0.00095063,"MEAN_MOTION_DOT":0.00031581,"MEAN_MOTION_DDOT":0},{"OBJECT_NAME":"LEMUR-2-BASS","OBJECT_ID":"2023-174D","EPOCH":"2026-03-03T04:41:41.706240","MEAN_MOTION":15.39472896,"ECCENTRICITY":0.0007915,"INCLINATION":97.3898,"RA_OF_ASC_NODE":145.6995,"ARG_OF_PERICENTER":184.3889,"MEAN_ANOMALY":175.7289,"EPHEMERIS_TYPE":0,"CLASSIFICATION_TYPE":"U","NORAD_CAT_ID":58259,"ELEMENT_SET_NO":999,"REV_AT_EPOCH":12903,"BSTAR":0.00051316,"MEAN_MOTION_DOT":0.00020088,"MEAN_MOTION_DDOT":0}]
