LEMUR-1                 
1 40044U 14033AL  26062.37123405  .00003471  00000+0  40662-3 0  9999
2 40044  97.7700 214.6528 0049822  66.1847 294.4580 14.84758102629761
LEMUR-2-GREENBERG       
1 42837U 17042N   26062.50201638  .00021315  00000+0  78816-3 0  9993
2 42837  97.3762 243.9025 0009521  24.9743 335.1955 15.27683252472231
LEMUR-2-ANDIS           
1 42838U 17042P   26062.47857652  .00026612  00000+0  91007-3 0  9995
2 42838  97.3647 243.7634 0009466  25.2985 334.8717 15.30196763472263
LEMUR-2-MONSON          
1 42839U 17042Q   26062.49037493  .00018773  00000+0  75957-3 0  9996
2 42839  97.4019 243.9999 0006936  14.4977 345.6458 15.24732100472046
LEMUR-2-FURIAUS         
1 42840U 17042R   26062.47002374  .00027827  00000+0  10856-2 0  9992
2 42840  97.3735 242.0946 0007619  78.7628 281.4467 15.25865437472069
LEMUR-2-PETERG          
1 42841U 17042S   26062.46325019  .00024388  00000+0  85890-3 0  9996
2 42841  97.3963 247.6714 0003990   3.0308 357.0955 15.29292108472257
LEMUR-2-DEMBITZ         
1 42842U 17042T   26062.44537052  .00022797  00000+0  86975-3 0  9994
2 42842  97.3793 244.9641 0007267  37.6449 322.5297 15.26651527472198
LEMUR-2-ZACHARY         
1 42845U 17042W   26062.48639367  .00050061  00000+0  11943-2 0  9990
2 42845  97.3649 252.5231 0003723  40.0100 320.1420 15.41385643472873
LEMUR-2-JIN-LUEN        
1 43182U 18014C   26062.31980985  .00222854  00000+0  14130-2 0  9994
2 43182  97.5452 352.0185 0001757 104.7382 255.4078 15.75884772444468
LEMUR-2-KADI            
1 43184U 18014E   26062.33249732  .00103161  00000+0  11396-2 0  9996
2 43184  97.4722 346.6398 0001126  44.1741 315.9606 15.62713187444398
LEMUR-2-AMANDA-SVANTE   
1 48269U 21034B   26062.16317544  .00031688  00000+0  11595-2 0  9994
2 48269  97.5848 138.1304 0002101 227.7624 132.3437 15.27987593264838
LEMUR-2-SPECIAL-K       
1 48273U 21034F   26062.17411567  .00070883  00000+0  15327-2 0  9997
2 48273  97.5731 143.2096 0001444 221.9143 138.1994 15.44239697265231
LEMUR-2-EMBRIONOVIS     
1 56970U 23084AQ  26062.34606523  .00009753  00000+0  29390-3 0  9998
2 56970  97.6117 202.8245 0008631 337.3194  22.7666 15.34507372151431
LEMUR-2-MANO            
1 57390U 23100E   26062.47818265  .00142924  00000+0  18200-2 0  9991
2 57390  99.4553  82.9619 0002456  57.6532 302.4955 15.58836875145511
LEMUR-2-DEVERILL-M-T    
1 57391U 23100F   26061.99927921  .00031581  00000+0  95063-3 0  9997
2 57391  99.4573  70.5637 0008785  48.1198 312.0787 15.34281705144936
LEMUR-2-BASS            
1 58259U 23174D   26062.19562160  .00020088  00000+0  51316-3 0  9998
2 58259  97.3898 145.6995 0007915 184.3889 175.7289 15.39472896129035
